[{"OBJECT_NAME":"TYVAK-0130","OBJECT_ID":"2021-041BF","EPOCH":"2026-03-09T11:37:42.710304","MEAN_MOTION":15.26049141,"ECCENTRICITY":0.0008953,"INCLINATION":52.9967,"RA_OF_ASC_NODE":128.603,"ARG_OF_PERICENTER":215.1647,"MEAN_ANOMALY":144.876,"EPHEMERIS_TYPE":0,"CLASSIFICATION_TYPE":"U","NORAD_CAT_ID":48606,"ELEMENT_SET_NO":999,"REV_AT_EPOCH":26515,"BSTAR":0.0003519806,"MEAN_MOTION_DOT":8.857e-5,"MEAN_MOTION_DDOT":0},{"OBJECT_NAME":"STARLINK-30103","OBJECT_ID":"2023-056E","EPOCH":"2026-03-09T22:00:01.999584","MEAN_MOTION":15.26736868,"ECCENTRICITY":0.00023268,"INCLINATION":42.9993,"RA_OF_ASC_NODE":207.4054,"ARG_OF_PERICENTER":264.6,"MEAN_ANOMALY":232.0817,"EPHEMERIS_TYPE":0,"CLASSIFICATION_TYPE":"U","NORAD_CAT_ID":56290,"ELEMENT_SET_NO":999,"REV_AT_EPOCH":572,"BSTAR":0.0017273975,"MEAN_MOTION_DOT":0.00046364,"MEAN_MOTION_DDOT":0}]
